[{"OBJECT_NAME":"STARLINK-34506","OBJECT_ID":"2025-129W","EPOCH":"2026-03-09T10:27:51.672672","MEAN_MOTION":14.983496,"ECCENTRICITY":0.00034288,"INCLINATION":70.0009,"RA_OF_ASC_NODE":74.9218,"ARG_OF_PERICENTER":263.1042,"MEAN_ANOMALY":96.9727,"EPHEMERIS_TYPE":0,"CLASSIFICATION_TYPE":"U","NORAD_CAT_ID":64432,"ELEMENT_SET_NO":999,"REV_AT_EPOCH":4119,"BSTAR":0.00026476964,"MEAN_MOTION_DOT":3.069e-5,"MEAN_MOTION_DDOT":0},{"OBJECT_NAME":"AIST-1 (RS41)","OBJECT_ID":"2013-078C","EPOCH":"2026-03-09T23:05:53.785248","MEAN_MOTION":14.95763496,"ECCENTRICITY":0.00150774,"INCLINATION":82.4188,"RA_OF_ASC_NODE":6.9784,"ARG_OF_PERICENTER":249.0877,"MEAN_ANOMALY":110.8731,"EPHEMERIS_TYPE":0,"CLASSIFICATION_TYPE":"U","NORAD_CAT_ID":39492,"ELEMENT_SET_NO":999,"REV_AT_EPOCH":66041,"BSTAR":0.00019220788,"MEAN_MOTION_DOT":2.171e-5,"MEAN_MOTION_DDOT":0}]
